NORAD_CAT_ID,OBJECT_NAME,OBJECT_TYPE,EPOCH,MEAN_MOTION,ECCENTRICITY,INCLINATION,RA_OF_ASC_NODE,ARG_OF_PERICENTER,MEAN_ANOMALY,BSTAR,MEAN_MOTION_DOT,MEAN_MOTION_DDOT,TLE_LINE0,TLE_LINE1,TLE_LINE2,SEMIMAJOR_AXIS,PERIOD,APOGEE,PERIGEE,DECAYED
53162.0,STARLINK-4114,PAYLOAD,2023-04-06 11:00:36,15.08842077,0.0001325,53.215,279.5989,80.9003,279.214,4.6745e-05,4.56e-06,0.0,0 STARLINK-4114,1 53162U 22083AG  23096.45875167  .00000456  00000-0  46745-4 0  9990,2 53162  53.2150 279.5989 0001325  80.9003 279.2140 15.08842077 40725,6917.874,95.437,540.656,538.822,0.0
53162.0,STARLINK-4114,PAYLOAD,2023-04-06 12:35:59,15.08838441,0.0001345,53.2146,279.2991,100.159,259.9554,-6.4332e-06,-3.9e-06,0.0,0 STARLINK-4114,1 53162U 22083AG  23096.52499338 -.00000390  00000-0 -64332-5 0  9992,2 53162  53.2146 279.2991 0001345 100.1590 259.9554 15.08838441 40104,6917.885,95.438,540.681,538.82,0.0
53162.0,STARLINK-4114,PAYLOAD,2023-04-06 18:57:31,15.08840024,0.0001293,53.2143,278.1102,91.6242,268.4898,1.2326e-05,-9.2e-07,0.0,0 STARLINK-4114,1 53162U 22083AG  23096.78995262 -.00000092  00000-0  12326-4 0  9990,2 53162  53.2143 278.1102 0001293  91.6242 268.4898 15.08840024 40143,6917.88,95.438,540.64,538.851,0.0
53162.0,STARLINK-4114,PAYLOAD,2023-04-07 10:51:23,15.08838261,0.0001321,53.2139,275.1362,93.8092,266.3051,1.1841e-06,-2.69e-06,0.0,0 STARLINK-4114,1 53162U 22083AG  23097.45235419 -.00000269  00000-0  11841-5 0  9994,2 53162  53.2139 275.1362 0001321  93.8092 266.3051 15.08838261 40870,6917.886,95.438,540.665,538.837,0.0
53162.0,STARLINK-4114,PAYLOAD,2023-04-08 12:17:34,15.08833126,0.0001165,53.221,270.3816,97.849,262.2635,6.3989e-05,7.31e-06,0.0,0 STARLINK-4114,1 53162U 22083AG  23098.51220094  .00000731  00000-0  63989-4 0  9997,2 53162  53.2210 270.3816 0001165  97.8490 262.2635 15.08833126 41030,6917.901,95.438,540.572,538.96,0.0
53162.0,STARLINK-4114,PAYLOAD,2023-04-09 12:08:21,15.0883726,0.0001265,53.215,265.9179,90.9351,269.1786,3.105e-05,2.06e-06,0.0,0 STARLINK-4114,1 53162U 22083AG  23099.50580175  .00000206  00000-0  31050-4 0  9997,2 53162  53.2150 265.9179 0001265  90.9351 269.1786 15.08837260 40558,6917.889,95.438,540.629,538.879,0.0
53162.0,STARLINK-4114,PAYLOAD,2023-04-09 16:54:30,15.08843466,0.0001552,53.2162,265.026,94.1271,265.9898,6.1061e-05,6.84e-06,0.0,0 STARLINK-4114,1 53162U 22083AG  23099.70451778  .00000684  00000-0  61061-4 0  9990,2 53162  53.2162 265.0260 0001552  94.1271 265.9898 15.08843466 41216,6917.87,95.437,540.808,538.661,0.0
53162.0,STARLINK-4114,PAYLOAD,2023-04-09 18:29:53,15.08844743,0.000158,53.2163,264.7287,94.3959,265.7214,7.5237e-05,9.1e-06,0.0,0 STARLINK-4114,1 53162U 22083AG  23099.77075682  .00000910  00000-0  75237-4 0  9995,2 53162  53.2163 264.7287 0001580  94.3959 265.7214 15.08844743 40597,6917.866,95.437,540.824,538.638,0.0
53162.0,STARLINK-4114,PAYLOAD,2023-04-10 11:59:08,15.08836242,0.0001449,53.2166,261.458,82.6018,277.5139,0.00014381,2.001e-05,0.0,0 STARLINK-4114,1 53162U 22083AG  23100.49940330  .00002001  00000-0  14381-3 0  9993,2 53162  53.2166 261.4580 0001449  82.6018 277.5139 15.08836242 41335,6917.892,95.438,540.759,538.754,0.0
53162.0,STARLINK-4114,PAYLOAD,2023-04-10 16:45:17,15.08844724,0.0001568,53.2174,260.567,81.7738,278.3431,0.00019995,2.896e-05,0.0,0 STARLINK-4114,1 53162U 22083AG  23100.69811748  .00002896  00000-0  19995-3 0  9993,2 53162  53.2174 260.5670 0001568  81.7738 278.3431 15.08844724 41366,6917.866,95.437,540.816,538.646,0.0
53162.0,STARLINK-4114,PAYLOAD,2023-04-11 10:14:32,15.08841894,0.0001357,53.2161,257.2948,74.6242,285.49,0.00011577,1.555e-05,0.0,0 STARLINK-4114,1 53162U 22083AG  23101.42675993  .00001555  00000-0  11577-3 0  9994,2 53162  53.2161 257.2948 0001357  74.6242 285.4900 15.08841894 41477,6917.875,95.437,540.678,538.801,0.0
53162.0,STARLINK-4114,PAYLOAD,2023-04-12 10:05:19,15.08839592,0.0002043,53.2166,252.8375,63.1891,296.931,0.00015653,2.204e-05,0.0,0 STARLINK-4114,1 53162U 22083AG  23102.42036140  .00002204  00000-0  15653-3 0  9991,2 53162  53.2166 252.8375 0002043  63.1891 296.9310 15.08839592 40993,6917.882,95.438,541.16,538.333,0.0
53162.0,STARLINK-4114,PAYLOAD,2023-04-12 16:26:51,15.08848736,0.0002202,53.2143,251.6446,79.4776,280.6464,4.3582e-05,4.06e-06,0.0,0 STARLINK-4114,1 53162U 22083AG  23102.68531487  .00000406  00000-0  43582-4 0  9998,2 53162  53.2143 251.6446 0002202  79.4776 280.6464 15.08848736 41668,6917.854,95.437,541.242,538.195,0.0
53162.0,STARLINK-4114,PAYLOAD,2023-04-13 09:56:06,15.08842345,0.000199,53.2122,248.3734,76.2666,283.8548,-3.1786e-05,-7.94e-06,0.0,0 STARLINK-4114,1 53162U 22083AG  23103.41395977 -.00000794  00000-0 -31786-4 0  9997,2 53162  53.2122 248.3734 0001990  76.2666 283.8548 15.08842345 41145,6917.873,95.437,541.115,538.362,0.0
53162.0,STARLINK-4114,PAYLOAD,2023-04-13 21:03:47,15.08846184,0.0001784,53.2129,246.2913,84.5566,275.563,8.6224e-05,1.085e-05,0.0,0 STARLINK-4114,1 53162U 22083AG  23103.87763239  .00001085  00000-0  86224-4 0  9996,2 53162  53.2129 246.2913 0001784  84.5566 275.5630 15.08846184 41842,6917.861,95.437,540.961,538.492,0.0
53162.0,STARLINK-4114,PAYLOAD,2023-04-14 11:22:16,15.08837625,0.0001929,53.212,243.6151,85.887,274.2342,4.4909e-05,4.27e-06,0.0,0 STARLINK-4114,1 53162U 22083AG  23104.47379933  .00000427  00000-0  44909-4 0  9990,2 53162  53.2120 243.6151 0001929  85.8870 274.2342 15.08837625 41308,6917.888,95.438,541.087,538.418,0.0
53162.0,STARLINK-4114,PAYLOAD,2023-04-14 19:19:16,15.08784817,0.0001318,53.2117,242.1293,79.6437,280.4703,-0.00038713,-6.434e-05,0.0,0 STARLINK-4114,1 53162U 22083AG  23104.80504724 -.00006434  00000-0 -38713-3 0  9996,2 53162  53.2117 242.1293 0001318  79.6437 280.4703 15.08784817 41985,6918.049,95.441,540.826,539.002,0.0
53162.0,STARLINK-4114,PAYLOAD,2023-04-15 01:40:59,15.08664513,0.0001948,53.2122,240.942,80.9617,279.1596,-0.0013277,-0.00021256,0.0,0 STARLINK-4114,1 53162U 22083AG  23105.07012815 -.00021256  00000-0 -13277-2 0  9997,2 53162  53.2122 240.9420 0001948  80.9617 279.1596 15.08664513 42024,6918.417,95.449,541.63,538.934,0.0
53162.0,STARLINK-4114,PAYLOAD,2023-04-15 11:13:48,15.08312033,0.0006584,53.2134,239.1571,317.3097,42.7383,-0.0041771,-0.00065257,0.0,0 STARLINK-4114,1 53162U 22083AG  23105.46792229 -.00065257  00000-0 -41771-2 0  9993,2 53162  53.2134 239.1571 0006584 317.3097  42.7383 15.08312033 42085,6919.495,95.471,545.915,536.804,0.0
53162.0,STARLINK-4114,PAYLOAD,2023-04-15 22:00:01,15.08019849,0.0001182,53.2142,237.1437,80.7879,198.5681,-0.00037921,-6.182e-05,0.0,0 STARLINK-4114,1 53162U 22083AG  23105.91668981 -.00006182  00000-0 -37921-3 0  9995,2 53162  53.2142 237.1437 0001182  80.7879 198.5681 15.08019849 42148,6920.388,95.489,543.071,541.435,0.0
53162.0,STARLINK-4114,PAYLOAD,2023-04-16 10:00:00,15.08031409,0.0001302,53.2145,234.9007,84.5032,30.7157,0.031415,0.00520462,0.0,0 STARLINK-4114,1 53162U 22083AG  23106.41667824  .00520462  00000-0  31415-1 0  9996,2 53162  53.2145 234.9007 0001302  84.5032  30.7157 15.08031409  1300,6920.353,95.489,543.119,541.317,0.0
53162.0,STARLINK-4114,PAYLOAD,2023-04-16 22:00:00,15.08598059,0.0001101,53.214,232.6591,71.5189,240.06,0.018374,0.00302947,0.0,0 STARLINK-4114,1 53162U 22083AG  23106.91667824  .00302947  00000-0  18374-1 0  9996,2 53162  53.2140 232.6591 0001101  71.5189 240.0600 15.08598059 42295,6918.62,95.453,541.247,539.723,0.0
53162.0,STARLINK-4114,PAYLOAD,2023-04-17 01:23:25,15.08496472,7.11e-05,53.2161,232.0222,108.8385,251.2684,-0.00044777,-7.339e-05,0.0,0 STARLINK-4114,1 53162U 22083AG  23107.05793628 -.00007339  00000-0 -44777-3 0  9991,2 53162  53.2161 232.0222 0000711 108.8385 251.2684 15.08496472 42327,6918.931,95.459,541.288,540.304,0.0
53162.0,STARLINK-4114,PAYLOAD,2023-04-17 12:31:09,15.08542405,0.0002182,53.2148,229.9451,85.6739,274.4502,0.0027622,0.00043588,0.0,0 STARLINK-4114,1 53162U 22083AG  23107.52163651  .00043588  00000-0  27622-2 0  9993,2 53162  53.2148 229.9451 0002182  85.6739 274.4502 15.08542405 42391,6918.79,95.456,542.165,539.145,0.0
53162.0,STARLINK-4114,PAYLOAD,2023-04-17 14:06:34,15.08526335,0.0001819,53.2149,229.648,63.4166,296.7012,0.0030956,0.00048898,0.0,0 STARLINK-4114,1 53162U 22083AG  23107.58789526  .00048898  00000-0  30956-2 0  9997,2 53162  53.2149 229.6480 0001819  63.4166 296.7012 15.08526335 41773,6918.839,95.457,541.963,539.446,0.0
53162.0,STARLINK-4114,PAYLOAD,2023-04-17 15:41:58,15.08513136,0.0001157,53.216,229.3464,78.7083,281.4039,0.0036258,0.0005737,0.0,0 STARLINK-4114,1 53162U 22083AG  23107.65414508  .00057370  00000-0  36258-2 0  9996,2 53162  53.2160 229.3464 0001157  78.7083 281.4039 15.08513136 42414,6918.88,95.458,541.545,539.944,0.0
53162.0,STARLINK-4114,PAYLOAD,2023-04-17 20:28:10,15.08536433,0.0001104,53.2155,228.4535,86.9564,273.1554,0.0036338,0.00057535,0.0,0 STARLINK-4114,1 53162U 22083AG  23107.85290157  .00057535  00000-0  36338-2 0  9992,2 53162  53.2155 228.4535 0001104  86.9564 273.1554 15.08536433 41812,6918.808,95.457,541.437,539.91,0.0
53162.0,STARLINK-4114,PAYLOAD,2023-04-18 07:36:01,15.08555778,9.58e-05,53.2163,226.3714,97.8611,262.2489,0.0035148,0.00055656,0.0,0 STARLINK-4114,1 53162U 22083AG  23108.31668104  .00055656  00000-0  35148-2 0  9995,2 53162  53.2163 226.3714 0000958  97.8611 262.2489 15.08555778 42514,6918.749,95.456,541.277,539.951,0.0
53162.0,STARLINK-4114,PAYLOAD,2023-04-18 20:19:10,15.08734282,0.0001167,53.2154,223.9917,117.1886,242.9226,0.0035069,0.00055804,0.0,0 STARLINK-4114,1 53162U 22083AG  23108.84665082  .00055804  00000-0  35069-2 0  9992,2 53162  53.2154 223.9917 0001167 117.1886 242.9226 15.08734282 41966,6918.204,95.444,540.876,539.261,0.0
53162.0,STARLINK-4114,PAYLOAD,2023-04-19 07:26:49,15.08821515,4.38e-05,53.2156,221.9135,71.6404,288.4636,0.00025003,3.692e-05,0.0,0 STARLINK-4114,1 53162U 22083AG  23109.31029521  .00003692  00000-0  25003-3 0  9993,2 53162  53.2156 221.9135 0000438  71.6404 288.4636 15.08821515 42662,6917.937,95.439,540.105,539.499,0.0
